CCSDS_OMM_VERS = 2.0
CREATION_DATE  = 
ORIGINATOR     = 

OBJECT_NAME    = COSMOS 2058
OBJECT_ID      = 1990-010A
CENTER_NAME    = EARTH
REF_FRAME      = TEME
TIME_SYSTEM    = UTC
MEAN_ELEMENT_THEORY = SGP/SGP4

EPOCH          = 2026-03-09T23:30:01.891584
MEAN_MOTION    = 15.11324867
ECCENTRICITY   = .00093159
INCLINATION    = 82.4669
RA_OF_ASC_NODE = 47.1427
ARG_OF_PERICENTER = 343.3032
MEAN_ANOMALY   = 16.7890

EPHEMERIS_TYPE = 0
CLASSIFICATION_TYPE = U
NORAD_CAT_ID   = 20465
ELEMENT_SET_NO = 999
REV_AT_EPOCH   = 94228
BSTAR          = .29943939E-3
MEAN_MOTION_DOT = .5077E-4
MEAN_MOTION_DDOT = 0

CCSDS_OMM_VERS = 2.0
CREATION_DATE  = 
ORIGINATOR     = 

OBJECT_NAME    = SL-14 R/B
OBJECT_ID      = 1990-010B
CENTER_NAME    = EARTH
REF_FRAME      = TEME
TIME_SYSTEM    = UTC
MEAN_ELEMENT_THEORY = SGP/SGP4

EPOCH          = 2026-03-09T14:52:00.601824
MEAN_MOTION    = 14.83568711
ECCENTRICITY   = .0018538
INCLINATION    = 82.4987
RA_OF_ASC_NODE = 267.4549
ARG_OF_PERICENTER = 302.6174
MEAN_ANOMALY   = 57.3252

EPHEMERIS_TYPE = 0
CLASSIFICATION_TYPE = U
NORAD_CAT_ID   = 20466
ELEMENT_SET_NO = 999
REV_AT_EPOCH   = 92847
BSTAR          = .60041E-4
MEAN_MOTION_DOT = .519E-5
MEAN_MOTION_DDOT = 0

CCSDS_OMM_VERS = 2.0
CREATION_DATE  = 
ORIGINATOR     = 

OBJECT_NAME    = SL-14 R/B
OBJECT_ID      = 1990-018B
CENTER_NAME    = EARTH
REF_FRAME      = TEME
TIME_SYSTEM    = UTC
MEAN_ELEMENT_THEORY = SGP/SGP4

EPOCH          = 2026-03-09T21:46:28.582464
MEAN_MOTION    = 14.82145209
ECCENTRICITY   = .00176734
INCLINATION    = 82.5203
RA_OF_ASC_NODE = 222.8861
ARG_OF_PERICENTER = 91.4000
MEAN_ANOMALY   = 268.9239

EPHEMERIS_TYPE = 0
CLASSIFICATION_TYPE = U
NORAD_CAT_ID   = 20511
ELEMENT_SET_NO = 999
REV_AT_EPOCH   = 92261
BSTAR          = .82072718E-4
MEAN_MOTION_DOT = .678E-5
MEAN_MOTION_DDOT = 0

CCSDS_OMM_VERS = 2.0
CREATION_DATE  = 
ORIGINATOR     = 

OBJECT_NAME    = HST
OBJECT_ID      = 1990-037B
CENTER_NAME    = EARTH
REF_FRAME      = TEME
TIME_SYSTEM    = UTC
MEAN_ELEMENT_THEORY = SGP/SGP4

EPOCH          = 2026-03-09T03:50:04.164288
MEAN_MOTION    = 15.29473555
ECCENTRICITY   = .00018372
INCLINATION    = 28.4717
RA_OF_ASC_NODE = 43.6133
ARG_OF_PERICENTER = 120.9992
MEAN_ANOMALY   = 239.0785

EPHEMERIS_TYPE = 0
CLASSIFICATION_TYPE = U
NORAD_CAT_ID   = 20580
ELEMENT_SET_NO = 999
REV_AT_EPOCH   = 77323
BSTAR          = .3002261E-3
MEAN_MOTION_DOT = .9063E-4
MEAN_MOTION_DDOT = 0

CCSDS_OMM_VERS = 2.0
CREATION_DATE  = 
ORIGINATOR     = 

OBJECT_NAME    = SL-16 R/B
OBJECT_ID      = 1990-046B
CENTER_NAME    = EARTH
REF_FRAME      = TEME
TIME_SYSTEM    = UTC
MEAN_ELEMENT_THEORY = SGP/SGP4

EPOCH          = 2026-03-09T21:49:20.502912
MEAN_MOTION    = 14.15012327
ECCENTRICITY   = .00162194
INCLINATION    = 70.9987
RA_OF_ASC_NODE = 297.4537
ARG_OF_PERICENTER = 299.3058
MEAN_ANOMALY   = 60.6443

EPHEMERIS_TYPE = 0
CLASSIFICATION_TYPE = U
NORAD_CAT_ID   = 20625
ELEMENT_SET_NO = 999
REV_AT_EPOCH   = 84842
BSTAR          = -.9517957E-4
MEAN_MOTION_DOT = -.232E-5
MEAN_MOTION_DDOT = 0

CCSDS_OMM_VERS = 2.0
CREATION_DATE  = 
ORIGINATOR     = 

OBJECT_NAME    = COSMOS 2084
OBJECT_ID      = 1990-055A
CENTER_NAME    = EARTH
REF_FRAME      = TEME
TIME_SYSTEM    = UTC
MEAN_ELEMENT_THEORY = SGP/SGP4

EPOCH          = 2026-03-09T23:42:10.320480
MEAN_MOTION    = 15.05654003
ECCENTRICITY   = .00170188
INCLINATION    = 62.7921
RA_OF_ASC_NODE = 334.5624
ARG_OF_PERICENTER = 190.1371
MEAN_ANOMALY   = 169.9389

EPHEMERIS_TYPE = 0
CLASSIFICATION_TYPE = U
NORAD_CAT_ID   = 20663
ELEMENT_SET_NO = 999
REV_AT_EPOCH   = 93636
BSTAR          = .23056361E-3
MEAN_MOTION_DOT = .3154E-4
MEAN_MOTION_DDOT = 0

CCSDS_OMM_VERS = 2.0
CREATION_DATE  = 
ORIGINATOR     = 

OBJECT_NAME    = SL-6 R/B(2)
OBJECT_ID      = 1990-055D
CENTER_NAME    = EARTH
REF_FRAME      = TEME
TIME_SYSTEM    = UTC
MEAN_ELEMENT_THEORY = SGP/SGP4

EPOCH          = 2026-03-09T21:41:59.551872
MEAN_MOTION    = 15.03595553
ECCENTRICITY   = .00247741
INCLINATION    = 62.7825
RA_OF_ASC_NODE = 253.1210
ARG_OF_PERICENTER = 347.1508
MEAN_ANOMALY   = 12.8957

EPHEMERIS_TYPE = 0
CLASSIFICATION_TYPE = U
NORAD_CAT_ID   = 20666
ELEMENT_SET_NO = 999
REV_AT_EPOCH   = 93822
BSTAR          = .20900577E-3
MEAN_MOTION_DOT = .2688E-4
MEAN_MOTION_DDOT = 0

CCSDS_OMM_VERS = 2.0
CREATION_DATE  = 
ORIGINATOR     = 

OBJECT_NAME    = SL-8 R/B
OBJECT_ID      = 1990-078B
CENTER_NAME    = EARTH
REF_FRAME      = TEME
TIME_SYSTEM    = UTC
MEAN_ELEMENT_THEORY = SGP/SGP4

EPOCH          = 2026-03-09T21:52:42.731616
MEAN_MOTION    = 14.89068601
ECCENTRICITY   = .03622553
INCLINATION    = 82.9007
RA_OF_ASC_NODE = 251.1111
ARG_OF_PERICENTER = 13.2503
MEAN_ANOMALY   = 347.7920

EPHEMERIS_TYPE = 0
CLASSIFICATION_TYPE = U
NORAD_CAT_ID   = 20775
ELEMENT_SET_NO = 999
REV_AT_EPOCH   = 80933
BSTAR          = .56464849E-3
MEAN_MOTION_DOT = .1918E-3
MEAN_MOTION_DDOT = 0

CCSDS_OMM_VERS = 2.0
CREATION_DATE  = 
ORIGINATOR     = 

OBJECT_NAME    = SL-8 R/B
OBJECT_ID      = 1991-006B
CENTER_NAME    = EARTH
REF_FRAME      = TEME
TIME_SYSTEM    = UTC
MEAN_ELEMENT_THEORY = SGP/SGP4

EPOCH          = 2026-03-09T18:44:55.019040
MEAN_MOTION    = 13.77494195
ECCENTRICITY   = .00230787
INCLINATION    = 82.9466
RA_OF_ASC_NODE = 169.9779
ARG_OF_PERICENTER = 38.0675
MEAN_ANOMALY   = 80.4726

EPHEMERIS_TYPE = 0
CLASSIFICATION_TYPE = U
NORAD_CAT_ID   = 21088
ELEMENT_SET_NO = 999
REV_AT_EPOCH   = 76408
BSTAR          = .6282744E-4
MEAN_MOTION_DOT = .78E-6
MEAN_MOTION_DDOT = 0

CCSDS_OMM_VERS = 2.0
CREATION_DATE  = 
ORIGINATOR     = 

OBJECT_NAME    = OKEAN-3
OBJECT_ID      = 1991-039A
CENTER_NAME    = EARTH
REF_FRAME      = TEME
TIME_SYSTEM    = UTC
MEAN_ELEMENT_THEORY = SGP/SGP4

EPOCH          = 2026-03-09T19:29:17.530944
MEAN_MOTION    = 15.04805880
ECCENTRICITY   = .00139411
INCLINATION    = 82.5190
RA_OF_ASC_NODE = 336.7249
ARG_OF_PERICENTER = 337.9296
MEAN_ANOMALY   = 22.1329

EPHEMERIS_TYPE = 0
CLASSIFICATION_TYPE = U
NORAD_CAT_ID   = 21397
ELEMENT_SET_NO = 999
REV_AT_EPOCH   = 86505
BSTAR          = .31884915E-3
MEAN_MOTION_DOT = .4536E-4
MEAN_MOTION_DDOT = 0

CCSDS_OMM_VERS = 2.0
CREATION_DATE  = 
ORIGINATOR     = 

OBJECT_NAME    = COSMOS 2151
OBJECT_ID      = 1991-042A
CENTER_NAME    = EARTH
REF_FRAME      = TEME
TIME_SYSTEM    = UTC
MEAN_ELEMENT_THEORY = SGP/SGP4

EPOCH          = 2026-03-09T21:12:10.736640
MEAN_MOTION    = 15.00104908
ECCENTRICITY   = .00139956
INCLINATION    = 82.4930
RA_OF_ASC_NODE = 83.4892
ARG_OF_PERICENTER = 63.3058
MEAN_ANOMALY   = 296.9597

EPHEMERIS_TYPE = 0
CLASSIFICATION_TYPE = U
NORAD_CAT_ID   = 21422
ELEMENT_SET_NO = 999
REV_AT_EPOCH   = 86322
BSTAR          = .15116122E-3
MEAN_MOTION_DOT = .1915E-4
MEAN_MOTION_DDOT = 0

CCSDS_OMM_VERS = 2.0
CREATION_DATE  = 
ORIGINATOR     = 

OBJECT_NAME    = SL-14 R/B
OBJECT_ID      = 1991-042B
CENTER_NAME    = EARTH
REF_FRAME      = TEME
TIME_SYSTEM    = UTC
MEAN_ELEMENT_THEORY = SGP/SGP4

EPOCH          = 2026-03-09T21:25:37.354080
MEAN_MOTION    = 14.81829845
ECCENTRICITY   = .00157979
INCLINATION    = 82.4923
RA_OF_ASC_NODE = 219.9918
ARG_OF_PERICENTER = 237.9189
MEAN_ANOMALY   = 122.0492

EPHEMERIS_TYPE = 0
CLASSIFICATION_TYPE = U
NORAD_CAT_ID   = 21423
ELEMENT_SET_NO = 999
REV_AT_EPOCH   = 85310
BSTAR          = .78975647E-4
MEAN_MOTION_DOT = .648E-5
MEAN_MOTION_DDOT = 0

