COSMOS 2058             
1 20465U 90010A   26068.97918856  .00005077  00000+0  29944-3 0  9991
2 20465  82.4669  47.1427 0009315 343.3032  16.7890 15.11324867942289
SL-14 R/B               
1 20466U 90010B   26068.61945141  .00000519  00000+0  60041-4 0  9990
2 20466  82.4987 267.4549 0018538 302.6174  57.3252 14.83568711928471
SL-14 R/B               
1 20511U 90018B   26068.90727526  .00000678  00000+0  82073-4 0  9991
2 20511  82.5203 222.8861 0017673  91.4000 268.9239 14.82145209922613
HST                     
1 20580U 90037B   26068.15977042  .00009063  00000+0  30023-3 0  9999
2 20580  28.4717  43.6133 0001837 120.9992 239.0785 15.29473555773239
SL-16 R/B               
1 20625U 90046B   26068.90926508 -.00000232  00000+0 -95180-4 0  9990
2 20625  70.9987 297.4537 0016219 299.3058  60.6443 14.15012327848424
COSMOS 2084             
1 20663U 90055A   26068.98761945  .00003154  00000+0  23056-3 0  9998
2 20663  62.7921 334.5624 0017018 190.1371 169.9389 15.05654003936363
SL-6 R/B(2)             
1 20666U 90055D   26068.90416148  .00002688  00000+0  20901-3 0  9992
2 20666  62.7825 253.1210 0024774 347.1508  12.8957 15.03595553938225
SL-8 R/B                
1 20775U 90078B   26068.91160569  .00019180  00000+0  56465-3 0  9991
2 20775  82.9007 251.1111 0362255  13.2503 347.7920 14.89068601809336
SL-8 R/B                
1 21088U 91006B   26068.78119235  .00000078  00000+0  62827-4 0  9996
2 21088  82.9466 169.9779 0023078  38.0675  80.4726 13.77494195764085
OKEAN-3                 
1 21397U 91039A   26068.81200846  .00004536  00000+0  31885-3 0  9990
2 21397  82.5190 336.7249 0013941 337.9296  22.1329 15.04805880865052
COSMOS 2151             
1 21422U 91042A   26068.88345760  .00001915  00000+0  15116-3 0  9992
2 21422  82.4930  83.4892 0013995  63.3058 296.9597 15.00104908863221
SL-14 R/B               
1 21423U 91042B   26068.89279345  .00000648  00000+0  78976-4 0  9995
2 21423  82.4923 219.9918 0015797 237.9189 122.0492 14.81829845853106
